IRIDIUM 39              
1 25042U 97069D   25171.85737329  .00000384  00000+0  95444-4 0  9998
2 25042  86.3925 209.5584 0015677 298.3924  61.5699 14.49223393449759
IRIDIUM 38              
1 25043U 97069E   25171.92618359  .00000266  00000+0  81125-4 0  9998
2 25043  86.3962 231.5821 0004266  89.8953 270.2734 14.38120600446499
IRIDIUM 42              
1 25077U 97077A   25171.58865449  .00000264  00000+0  83404-4 0  9990
2 25077  86.3965 237.8978 0003072  96.4236 263.7311 14.36354696441689
IRIDIUM 24              
1 25105U 97082B   25171.71092206  .00000304  00000+0  86347-4 0  9990
2 25105  86.3901  78.8071 0013572  69.6293 290.6363 14.42101922443721
IRIDIUM 51              
1 25262U 98018A   25171.93006228  .00021293  00000+0  47052-3 0  9996
2 25262  86.3837  53.9801 0083668 234.6652 124.6761 15.39974101447607
IRIDIUM 57              
1 25273U 98019B   25172.21382433  .00000258  00000+0  82308-4 0  9998
2 25273  86.3975 143.5753 0002377  87.1849 272.9620 14.35895693425577
